ONEWEB-0197             
1 48236U 21031AC  25296.65234459  .00000147  00000+0  36072-3 0  9994
2 48236  87.9023 336.8099 0001665  88.5033 271.6287 13.14504098217117
ONEWEB-0194             
1 48237U 21031AD  25296.55576022  .00000152  00000+0  37475-3 0  9993
2 48237  87.9022 336.8453 0001760 104.1768 255.9557 13.14503226217271
ONEWEB-0193             
1 48238U 21031AE  25296.64771678  .00000222  00000+0  56553-3 0  9994
2 48238  87.9017 336.8237 0001634 110.6187 249.5118 13.14500583217234
ONEWEB-0191             
1 48239U 21031AF  25296.65881830  .00000052  00000+0  10713-3 0  9997
2 48239  87.9035 336.8060 0001793  97.2917 262.8416 13.14504032217092
ONEWEB-0195             
1 48240U 21031AG  25296.55972669  .00000212  00000+0  53868-3 0  9995
2 48240  87.9027 336.8217 0002256  96.3630 263.7757 13.14502293217068
ONEWEB-0201             
1 48241U 21031AH  25296.54796875  .00000042  00000+0  80117-4 0  9997
2 48241  87.9013 336.8711 0001983  87.5725 272.5631 13.14503821217298
ONEWEB-0207             
1 48242U 21031AJ  25296.37576507 -.00000195  00000+0 -55939-3 0  9991
2 48242  87.9025 336.8625 0001852  89.6454 270.4888 13.14502896217183
ONEWEB-0208             
1 48243U 21031AK  25296.66199635 -.00000028  00000+0 -10879-3 0  9996
2 48243  87.9025 336.8215 0002059  96.8737 263.2627 13.14503774217236
ONEWEB-0200             
1 48244U 21031AL  25296.54941611  .00000064  00000+0  13868-3 0  9992
2 48244  87.9023 336.8337 0001985  95.9590 264.1766 13.14502553217142
ONEWEB-0217             
1 48245U 21031AM  25296.64138972  .00000234  00000+0  59639-3 0  9997
2 48245  87.9034 336.8054 0002180  97.1037 263.0341 13.14503448217106
ONEWEB-0211             
1 48767U 21045A   25296.45837720  .00003670  00000+0  96305-2 0  9994
2 48767  87.8972 306.3689 0002019 101.6036 258.5321 13.16117809213301
ONEWEB-0223             
1 48768U 21045B   25296.50286641  .00000028  00000+0  40310-4 0  9992
2 48768  87.8965 306.4174 0002024 105.8062 254.3292 13.15549125213282
ONEWEB-0230             
1 48769U 21045C   25296.47434779  .00000165  00000+0  40441-3 0  9992
2 48769  87.8960 306.4551 0001690  92.1346 267.9978 13.15548212213544
ONEWEB-0237             
1 48770U 21045D   25296.46325632  .00000084  00000+0  18903-3 0  9998
2 48770  87.8965 306.4553 0001847 101.2263 258.9075 13.15548932213263
ONEWEB-0235             
1 48771U 21045E   25296.43790152 -.00000041  00000+0 -14246-3 0  9990
2 48771  87.8965 306.4314 0001993 106.7971 253.3378 13.15549421213255
ONEWEB-0242             
1 48772U 21045F   25296.50762653 -.00000052  00000+0 -17258-3 0  9992
2 48772  87.8973 306.4070 0001743  97.5903 262.5425 13.15547951213306
ONEWEB-0241             
1 48773U 21045G   25296.49495381  .00000151  00000+0  36617-3 0  9990
2 48773  87.8960 306.4521 0002206 100.7383 259.3995 13.15548174213212
