[{"OBJECT_NAME":"ONEWEB-0197","OBJECT_ID":"2021-031AC","EPOCH":"2025-10-23T15:39:22.572576","MEAN_MOTION":13.14504098,"ECCENTRICITY":0.0001665,"INCLINATION":87.9023,"RA_OF_ASC_NODE":336.8099,"ARG_OF_PERICENTER":88.5033,"MEAN_ANOMALY":271.6287,"EPHEMERIS_TYPE":0,"CLASSIFICATION_TYPE":"U","NORAD_CAT_ID":48236,"ELEMENT_SET_NO":999,"REV_AT_EPOCH":21711,"BSTAR":0.00036072,"MEAN_MOTION_DOT":1.47e-6,"MEAN_MOTION_DDOT":0},{"OBJECT_NAME":"ONEWEB-0194","OBJECT_ID":"2021-031AD","EPOCH":"2025-10-23T13:20:17.683008","MEAN_MOTION":13.14503226,"ECCENTRICITY":0.000176,"INCLINATION":87.9022,"RA_OF_ASC_NODE":336.8453,"ARG_OF_PERICENTER":104.1768,"MEAN_ANOMALY":255.9557,"EPHEMERIS_TYPE":0,"CLASSIFICATION_TYPE":"U","NORAD_CAT_ID":48237,"ELEMENT_SET_NO":999,"REV_AT_EPOCH":21727,"BSTAR":0.00037475,"MEAN_MOTION_DOT":1.52e-6,"MEAN_MOTION_DDOT":0},{"OBJECT_NAME":"ONEWEB-0193","OBJECT_ID":"2021-031AE","EPOCH":"2025-10-23T15:32:42.729792","MEAN_MOTION":13.14500583,"ECCENTRICITY":0.0001634,"INCLINATION":87.9017,"RA_OF_ASC_NODE":336.8237,"ARG_OF_PERICENTER":110.6187,"MEAN_ANOMALY":249.5118,"EPHEMERIS_TYPE":0,"CLASSIFICATION_TYPE":"U","NORAD_CAT_ID":48238,"ELEMENT_SET_NO":999,"REV_AT_EPOCH":21723,"BSTAR":0.00056553,"MEAN_MOTION_DOT":2.22e-6,"MEAN_MOTION_DDOT":0},{"OBJECT_NAME":"ONEWEB-0191","OBJECT_ID":"2021-031AF","EPOCH":"2025-10-23T15:48:41.901120","MEAN_MOTION":13.14504032,"ECCENTRICITY":0.0001793,"INCLINATION":87.9035,"RA_OF_ASC_NODE":336.806,"ARG_OF_PERICENTER":97.2917,"MEAN_ANOMALY":262.8416,"EPHEMERIS_TYPE":0,"CLASSIFICATION_TYPE":"U","NORAD_CAT_ID":48239,"ELEMENT_SET_NO":999,"REV_AT_EPOCH":21709,"BSTAR":0.00010713,"MEAN_MOTION_DOT":5.2e-7,"MEAN_MOTION_DDOT":0},{"OBJECT_NAME":"ONEWEB-0195","OBJECT_ID":"2021-031AG","EPOCH":"2025-10-23T13:26:00.386016","MEAN_MOTION":13.14502293,"ECCENTRICITY":0.0002256,"INCLINATION":87.9027,"RA_OF_ASC_NODE":336.8217,"ARG_OF_PERICENTER":96.363,"MEAN_ANOMALY":263.7757,"EPHEMERIS_TYPE":0,"CLASSIFICATION_TYPE":"U","NORAD_CAT_ID":48240,"ELEMENT_SET_NO":999,"REV_AT_EPOCH":21706,"BSTAR":0.00053868,"MEAN_MOTION_DOT":2.12e-6,"MEAN_MOTION_DDOT":0},{"OBJECT_NAME":"ONEWEB-0201","OBJECT_ID":"2021-031AH","EPOCH":"2025-10-23T13:09:04.500000","MEAN_MOTION":13.14503821,"ECCENTRICITY":0.0001983,"INCLINATION":87.9013,"RA_OF_ASC_NODE":336.8711,"ARG_OF_PERICENTER":87.5725,"MEAN_ANOMALY":272.5631,"EPHEMERIS_TYPE":0,"CLASSIFICATION_TYPE":"U","NORAD_CAT_ID":48241,"ELEMENT_SET_NO":999,"REV_AT_EPOCH":21729,"BSTAR":8.0117e-5,"MEAN_MOTION_DOT":4.2e-7,"MEAN_MOTION_DDOT":0},{"OBJECT_NAME":"ONEWEB-0207","OBJECT_ID":"2021-031AJ","EPOCH":"2025-10-23T09:01:06.102048","MEAN_MOTION":13.14502896,"ECCENTRICITY":0.0001852,"INCLINATION":87.9025,"RA_OF_ASC_NODE":336.8625,"ARG_OF_PERICENTER":89.6454,"MEAN_ANOMALY":270.4888,"EPHEMERIS_TYPE":0,"CLASSIFICATION_TYPE":"U","NORAD_CAT_ID":48242,"ELEMENT_SET_NO":999,"REV_AT_EPOCH":21718,"BSTAR":-0.00055939,"MEAN_MOTION_DOT":-1.95e-6,"MEAN_MOTION_DDOT":0},{"OBJECT_NAME":"ONEWEB-0208","OBJECT_ID":"2021-031AK","EPOCH":"2025-10-23T15:53:16.484640","MEAN_MOTION":13.14503774,"ECCENTRICITY":0.0002059,"INCLINATION":87.9025,"RA_OF_ASC_NODE":336.8215,"ARG_OF_PERICENTER":96.8737,"MEAN_ANOMALY":263.2627,"EPHEMERIS_TYPE":0,"CLASSIFICATION_TYPE":"U","NORAD_CAT_ID":48243,"ELEMENT_SET_NO":999,"REV_AT_EPOCH":21723,"BSTAR":-0.00010879,"MEAN_MOTION_DOT":-2.8e-7,"MEAN_MOTION_DDOT":0},{"OBJECT_NAME":"ONEWEB-0200","OBJECT_ID":"2021-031AL","EPOCH":"2025-10-23T13:11:09.551904","MEAN_MOTION":13.14502553,"ECCENTRICITY":0.0001985,"INCLINATION":87.9023,"RA_OF_ASC_NODE":336.8337,"ARG_OF_PERICENTER":95.959,"MEAN_ANOMALY":264.1766,"EPHEMERIS_TYPE":0,"CLASSIFICATION_TYPE":"U","NORAD_CAT_ID":48244,"ELEMENT_SET_NO":999,"REV_AT_EPOCH":21714,"BSTAR":0.00013868,"MEAN_MOTION_DOT":6.4e-7,"MEAN_MOTION_DDOT":0},{"OBJECT_NAME":"ONEWEB-0217","OBJECT_ID":"2021-031AM","EPOCH":"2025-10-23T15:23:36.071808","MEAN_MOTION":13.14503448,"ECCENTRICITY":0.000218,"INCLINATION":87.9034,"RA_OF_ASC_NODE":336.8054,"ARG_OF_PERICENTER":97.1037,"MEAN_ANOMALY":263.0341,"EPHEMERIS_TYPE":0,"CLASSIFICATION_TYPE":"U","NORAD_CAT_ID":48245,"ELEMENT_SET_NO":999,"REV_AT_EPOCH":21710,"BSTAR":0.00059639,"MEAN_MOTION_DOT":2.34e-6,"MEAN_MOTION_DDOT":0},{"OBJECT_NAME":"ONEWEB-0211","OBJECT_ID":"2021-045A","EPOCH":"2025-10-23T11:00:03.790080","MEAN_MOTION":13.16117809,"ECCENTRICITY":0.0002019,"INCLINATION":87.8972,"RA_OF_ASC_NODE":306.3689,"ARG_OF_PERICENTER":101.6036,"MEAN_ANOMALY":258.5321,"EPHEMERIS_TYPE":0,"CLASSIFICATION_TYPE":"U","NORAD_CAT_ID":48767,"ELEMENT_SET_NO":999,"REV_AT_EPOCH":21330,"BSTAR":0.0096305,"MEAN_MOTION_DOT":3.67e-5,"MEAN_MOTION_DDOT":0},{"OBJECT_NAME":"ONEWEB-0223","OBJECT_ID":"2021-045B","EPOCH":"2025-10-23T12:04:07.657824","MEAN_MOTION":13.15549125,"ECCENTRICITY":0.0002024,"INCLINATION":87.8965,"RA_OF_ASC_NODE":306.4174,"ARG_OF_PERICENTER":105.8062,"MEAN_ANOMALY":254.3292,"EPHEMERIS_TYPE":0,"CLASSIFICATION_TYPE":"U","NORAD_CAT_ID":48768,"ELEMENT_SET_NO":999,"REV_AT_EPOCH":21328,"BSTAR":4.031e-5,"MEAN_MOTION_DOT":2.8e-7,"MEAN_MOTION_DDOT":0},{"OBJECT_NAME":"ONEWEB-0230","OBJECT_ID":"2021-045C","EPOCH":"2025-10-23T11:23:03.649056","MEAN_MOTION":13.15548212,"ECCENTRICITY":0.000169,"INCLINATION":87.896,"RA_OF_ASC_NODE":306.4551,"ARG_OF_PERICENTER":92.1346,"MEAN_ANOMALY":267.9978,"EPHEMERIS_TYPE":0,"CLASSIFICATION_TYPE":"U","NORAD_CAT_ID":48769,"ELEMENT_SET_NO":999,"REV_AT_EPOCH":21354,"BSTAR":0.00040441,"MEAN_MOTION_DOT":1.65e-6,"MEAN_MOTION_DDOT":0},{"OBJECT_NAME":"ONEWEB-0237","OBJECT_ID":"2021-045D","EPOCH":"2025-10-23T11:07:05.346048","MEAN_MOTION":13.15548932,"ECCENTRICITY":0.0001847,"INCLINATION":87.8965,"RA_OF_ASC_NODE":306.4553,"ARG_OF_PERICENTER":101.2263,"MEAN_ANOMALY":258.9075,"EPHEMERIS_TYPE":0,"CLASSIFICATION_TYPE":"U","NORAD_CAT_ID":48770,"ELEMENT_SET_NO":999,"REV_AT_EPOCH":21326,"BSTAR":0.00018903,"MEAN_MOTION_DOT":8.4e-7,"MEAN_MOTION_DDOT":0},{"OBJECT_NAME":"ONEWEB-0235","OBJECT_ID":"2021-045E","EPOCH":"2025-10-23T10:30:34.691328","MEAN_MOTION":13.15549421,"ECCENTRICITY":0.0001993,"INCLINATION":87.8965,"RA_OF_ASC_NODE":306.4314,"ARG_OF_PERICENTER":106.7971,"MEAN_ANOMALY":253.3378,"EPHEMERIS_TYPE":0,"CLASSIFICATION_TYPE":"U","NORAD_CAT_ID":48771,"ELEMENT_SET_NO":999,"REV_AT_EPOCH":21325,"BSTAR":-0.00014246,"MEAN_MOTION_DOT":-4.1e-7,"MEAN_MOTION_DDOT":0},{"OBJECT_NAME":"ONEWEB-0242","OBJECT_ID":"2021-045F","EPOCH":"2025-10-23T12:10:58.932192","MEAN_MOTION":13.15547951,"ECCENTRICITY":0.0001743,"INCLINATION":87.8973,"RA_OF_ASC_NODE":306.407,"ARG_OF_PERICENTER":97.5903,"MEAN_ANOMALY":262.5425,"EPHEMERIS_TYPE":0,"CLASSIFICATION_TYPE":"U","NORAD_CAT_ID":48772,"ELEMENT_SET_NO":999,"REV_AT_EPOCH":21330,"BSTAR":-0.00017258,"MEAN_MOTION_DOT":-5.2e-7,"MEAN_MOTION_DDOT":0},{"OBJECT_NAME":"ONEWEB-0241","OBJECT_ID":"2021-045G","EPOCH":"2025-10-23T11:52:44.009184","MEAN_MOTION":13.15548174,"ECCENTRICITY":0.0002206,"INCLINATION":87.896,"RA_OF_ASC_NODE":306.4521,"ARG_OF_PERICENTER":100.7383,"MEAN_ANOMALY":259.3995,"EPHEMERIS_TYPE":0,"CLASSIFICATION_TYPE":"U","NORAD_CAT_ID":48773,"ELEMENT_SET_NO":999,"REV_AT_EPOCH":21321,"BSTAR":0.00036617,"MEAN_MOTION_DOT":1.51e-6,"MEAN_MOTION_DDOT":0}]
